NORAD_CAT_ID,OBJECT_NAME,OBJECT_TYPE,EPOCH,MEAN_MOTION,ECCENTRICITY,INCLINATION,RA_OF_ASC_NODE,ARG_OF_PERICENTER,MEAN_ANOMALY,BSTAR,MEAN_MOTION_DOT,MEAN_MOTION_DDOT,TLE_LINE0,TLE_LINE1,TLE_LINE2,SEMIMAJOR_AXIS,PERIOD,APOGEE,PERIGEE,DECAYED
53144.0,STARLINK-4100,PAYLOAD,2023-03-19 02:48:01,15.08851031,0.000123,53.2168,11.9361,63.2387,296.8731,0.001342,0.00021141,0.0,0 STARLINK-4100,1 53144U 22083N   23078.11668961  .00021141  00000-0  13420-2 0  9991,2 53144  53.2168  11.9361 0001230  63.2387 296.8731 15.08851031 37817,6917.847,95.437,540.563,538.861,0.0
53144.0,STARLINK-4100,PAYLOAD,2023-03-19 12:20:20,15.08879757,0.0001312,53.2169,10.1515,68.4211,291.6921,0.0019433,0.00030809,0.0,0 STARLINK-4100,1 53144U 22083N   23078.51412200  .00030809  00000-0  19433-2 0  9999,2 53144  53.2169  10.1515 0001312  68.4211 291.6921 15.08879757 37240,6917.759,95.435,540.531,538.716,0.0
53144.0,STARLINK-4100,PAYLOAD,2023-03-20 04:14:12,15.08858213,0.0001808,53.2174,7.1748,58.3366,301.7802,0.00086677,0.0001354,0.0,0 STARLINK-4100,1 53144U 22083N   23079.17653043  .00013540  00000-0  86677-3 0  9992,2 53144  53.2174   7.1748 0001808  58.3366 301.7802 15.08858213 37974,6917.825,95.436,540.94,538.439,0.0
53144.0,STARLINK-4100,PAYLOAD,2023-03-20 05:49:35,15.08861428,0.0001198,53.2166,6.8789,76.6005,283.512,0.0011787,0.00018532,0.0,0 STARLINK-4100,1 53144U 22083N   23079.24276776  .00018532  00000-0  11787-2 0  9999,2 53144  53.2166   6.8789 0001198  76.6005 283.5120 15.08861428 37355,6917.815,95.436,540.509,538.851,0.0
53144.0,STARLINK-4100,PAYLOAD,2023-03-21 02:29:36,15.08857315,0.0001229,53.2167,3.015,94.3645,265.7487,0.0015837,0.00025018,0.0,0 STARLINK-4100,1 53144U 22083N   23080.10389106  .00025018  00000-0  15837-2 0  9995,2 53144  53.2167   3.0150 0001229  94.3645 265.7487 15.08857315 38112,6917.827,95.436,540.543,538.842,0.0
53144.0,STARLINK-4100,PAYLOAD,2023-03-21 07:15:45,15.08869907,0.0001128,53.2161,2.1218,93.7662,266.3459,0.0016246,0.00025683,0.0,0 STARLINK-4100,1 53144U 22083N   23080.30260679  .00025683  00000-0  16246-2 0  9993,2 53144  53.2161   2.1218 0001128  93.7662 266.3459 15.08869907 37510,6917.789,95.436,540.434,538.874,0.0
53144.0,STARLINK-4100,PAYLOAD,2023-03-22 03:55:46,15.08845958,0.0001467,53.217,358.2568,80.2161,279.8997,0.0019221,0.0003044,0.0,0 STARLINK-4100,1 53144U 22083N   23081.16373839  .00030440  00000-0  19221-2 0  9994,2 53144  53.2170 358.2568 0001467  80.2161 279.8997 15.08845958 38274,6917.862,95.437,540.742,538.712,0.0
53144.0,STARLINK-4100,PAYLOAD,2023-03-22 08:41:56,15.08850362,0.0001464,53.2167,357.3645,79.4315,280.6842,0.00097067,0.00015198,0.0,0 STARLINK-4100,1 53144U 22083N   23081.36245771  .00015198  00000-0  97067-3 0  9997,2 53144  53.2167 357.3645 0001464  79.4315 280.6842 15.08850362 38302,6917.849,95.437,540.726,538.701,0.0
53144.0,STARLINK-4100,PAYLOAD,2023-03-23 03:46:33,15.08866074,0.0001203,53.2165,353.7954,99.6963,260.4165,0.0010838,0.00017015,0.0,0 STARLINK-4100,1 53144U 22083N   23082.15732738  .00017015  00000-0  10838-2 0  9999,2 53144  53.2165 353.7954 0001203  99.6963 260.4165 15.08866074 37790,6917.801,95.436,540.498,538.833,0.0
53144.0,STARLINK-4100,PAYLOAD,2023-03-23 21:15:48,15.08839473,0.0001461,53.2171,350.5249,89.2337,270.8823,2.7664e-05,1.52e-06,0.0,0 STARLINK-4100,1 53144U 22083N   23082.88597610  .00000152  00000-0  27664-4 0  9998,2 53144  53.2171 350.5249 0001461  89.2337 270.8823 15.08839473 38537,6917.882,95.438,540.758,538.736,0.0
53144.0,STARLINK-4100,PAYLOAD,2023-03-24 03:37:19,15.08888398,0.0001389,53.2169,349.3357,66.4218,293.692,0.0012688,0.00019989,0.0,0 STARLINK-4100,1 53144U 22083N   23083.15092333  .00019989  00000-0  12688-2 0  9997,2 53144  53.2169 349.3357 0001389  66.4218 293.6920 15.08888398 38579,6917.732,95.434,540.558,538.637,0.0
53144.0,STARLINK-4100,PAYLOAD,2023-03-24 21:06:33,15.08862304,0.0001262,53.2159,346.0655,73.0155,287.0976,0.00034324,5.182e-05,0.0,0 STARLINK-4100,1 53144U 22083N   23083.87955736  .00005182  00000-0  34324-3 0  9993,2 53144  53.2159 346.0655 0001262  73.0155 287.0976 15.08862304 38686,6917.812,95.436,540.55,538.804,0.0
53144.0,STARLINK-4100,PAYLOAD,2023-03-24 22:41:57,15.08866478,0.0001416,53.2162,345.7698,68.9185,291.1959,0.00063635,9.861e-05,0.0,0 STARLINK-4100,1 53144U 22083N   23083.94580048  .00009861  00000-0  63635-3 0  9996,2 53144  53.2162 345.7698 0001416  68.9185 291.1959 15.08866478 38065,6917.799,95.436,540.644,538.685,0.0
53144.0,STARLINK-4100,PAYLOAD,2023-03-25 03:28:05,15.08888496,0.0001304,53.2162,344.8747,75.5717,284.542,0.0013358,0.00021063,0.0,0 STARLINK-4100,1 53144U 22083N   23084.14451024  .00021063  00000-0  13358-2 0  9994,2 53144  53.2162 344.8747 0001304  75.5717 284.5420 15.08888496 38727,6917.732,95.434,540.499,538.695,0.0
53144.0,STARLINK-4100,PAYLOAD,2023-03-25 20:57:23,15.08792201,0.0001232,53.2164,341.607,85.6589,274.4543,-0.0012358,-0.00019876,0.0,0 STARLINK-4100,1 53144U 22083N   23084.87318363 -.00019876  00000-0 -12358-2 0  9992,2 53144  53.2164 341.6070 0001232  85.6589 274.4543 15.08792201 38836,6918.026,95.441,540.744,539.039,0.0
53144.0,STARLINK-4100,PAYLOAD,2023-03-25 22:32:46,15.08787565,0.0001103,53.2163,341.3095,81.3379,278.7738,-0.0011433,-0.00018411,0.0,0 STARLINK-4100,1 53144U 22083N   23084.93942646 -.00018411  00000-0 -11433-2 0  9993,2 53144  53.2163 341.3095 0001103  81.3379 278.7738 15.08787565 38218,6918.041,95.441,540.669,539.143,0.0
53144.0,STARLINK-4100,PAYLOAD,2023-03-26 20:48:10,15.088297,0.0001098,53.2161,337.1431,69.9814,290.1296,0.00044889,6.861e-05,0.0,0 STARLINK-4100,1 53144U 22083N   23085.86678693  .00006861  00000-0  44889-3 0  9990,2 53144  53.2161 337.1431 0001098  69.9814 290.1296 15.08829700 38981,6917.912,95.438,540.536,539.017,0.0
53144.0,STARLINK-4100,PAYLOAD,2023-03-26 22:23:33,15.08838849,0.0001444,53.2162,336.8458,68.2405,291.8741,0.0002611,3.87e-05,0.0,0 STARLINK-4100,1 53144U 22083N   23085.93302359  .00003870  00000-0  26110-3 0  9995,2 53144  53.2162 336.8458 0001444  68.2405 291.8741 15.08838849 38369,6917.884,95.438,540.748,538.75,0.0
53144.0,STARLINK-4100,PAYLOAD,2023-03-27 03:09:42,15.08861103,0.0001134,53.2159,335.9533,85.719,274.3932,0.00078987,0.00012312,0.0,0 STARLINK-4100,1 53144U 22083N   23086.13173613  .00012312  00000-0  78987-3 0  9997,2 53144  53.2159 335.9533 0001134  85.7190 274.3932 15.08861103 39021,6917.816,95.436,540.465,538.896,0.0
53144.0,STARLINK-4100,PAYLOAD,2023-03-27 20:38:58,15.08840391,0.000123,53.2162,332.6827,81.6652,278.4479,0.00051302,7.886e-05,0.0,0 STARLINK-4100,1 53144U 22083N   23086.86039753  .00007886  00000-0  51302-3 0  9995,2 53144  53.2162 332.6827 0001230  81.6652 278.4479 15.08840391 39139,6917.879,95.438,540.595,538.893,0.0
53144.0,STARLINK-4100,PAYLOAD,2023-03-27 22:14:21,15.08843877,0.0001568,53.2164,332.3856,71.7488,288.3675,0.00053052,8.166e-05,0.0,0 STARLINK-4100,1 53144U 22083N   23086.92663694  .00008166  00000-0  53052-3 0  9995,2 53144  53.2164 332.3856 0001568  71.7488 288.3675 15.08843877 38512,6917.869,95.437,540.818,538.649,0.0
53144.0,STARLINK-4100,PAYLOAD,2023-03-28 01:25:07,15.08853829,0.0001651,53.216,331.7905,72.8248,287.2924,0.00061285,9.483e-05,0.0,0 STARLINK-4100,1 53144U 22083N   23087.05911263  .00009483  00000-0  61285-3 0  9998,2 53144  53.2160 331.7905 0001651  72.8248 287.2924 15.08853829 39160,6917.838,95.437,540.845,538.561,0.0
53144.0,STARLINK-4100,PAYLOAD,2023-03-28 22:05:07,15.08849175,0.0001438,53.2163,327.923,84.6476,275.468,-8.9335e-05,-1.71e-05,0.0,0 STARLINK-4100,1 53144U 22083N   23087.92022160 -.00001710  00000-0 -89335-4 0  9997,2 53144  53.2163 327.9230 0001438  84.6476 275.4680 15.08849175 39299,6917.852,95.437,540.712,538.723,0.0
53144.0,STARLINK-4100,PAYLOAD,2023-03-28 23:40:30,15.08854548,0.0001559,53.217,327.6278,71.1616,288.9545,8.7225e-05,1.101e-05,0.0,0 STARLINK-4100,1 53144U 22083N   23087.98646303  .00001101  00000-0  87225-4 0  9992,2 53144  53.2170 327.6278 0001559  71.1616 288.9545 15.08854548 38677,6917.836,95.437,540.779,538.622,0.0
53144.0,STARLINK-4100,PAYLOAD,2023-03-29 21:55:54,15.08847324,0.0001351,53.2166,323.4638,85.1979,274.9168,0.00023927,3.523e-05,0.0,0 STARLINK-4100,1 53144U 22083N   23088.91382282  .00003523  00000-0  23927-3 0  9997,2 53144  53.2166 323.4638 0001351  85.1979 274.9168 15.08847324 38819,6917.858,95.437,540.658,538.788,0.0
53144.0,STARLINK-4100,PAYLOAD,2023-03-30 01:06:40,15.08854118,0.0001497,53.2163,322.8684,85.7274,274.3889,0.0007794,0.00012143,0.0,0 STARLINK-4100,1 53144U 22083N   23089.04630285  .00012143  00000-0  77940-3 0  9993,2 53144  53.2163 322.8684 0001497  85.7274 274.3889 15.08854118 39460,6917.837,95.437,540.738,538.667,0.0
53144.0,STARLINK-4100,PAYLOAD,2023-03-30 21:46:41,15.08850437,0.0001309,53.2169,319.0047,85.9887,274.1254,0.0005722,8.833e-05,0.0,0 STARLINK-4100,1 53144U 22083N   23089.90742372  .00008833  00000-0  57220-3 0  9999,2 53144  53.2169 319.0047 0001309  85.9887 274.1254 15.08850437 38969,6917.848,95.437,540.619,538.808,0.0
53144.0,STARLINK-4100,PAYLOAD,2023-03-30 23:22:04,15.08851774,0.0001359,53.2167,318.7072,87.5207,272.5941,0.001093,0.00017155,0.0,0 STARLINK-4100,1 53144U 22083N   23089.97366470  .00017155  00000-0  10930-2 0  9990,2 53144  53.2167 318.7072 0001359  87.5207 272.5941 15.08851774 39602,6917.844,95.437,540.65,538.769,0.0
53144.0,STARLINK-4100,PAYLOAD,2023-03-31 20:02:05,15.08839177,0.0001395,53.2163,314.8411,70.603,289.5113,0.00064652,0.00010016,0.0,0 STARLINK-4100,1 53144U 22083N   23090.83478804  .00010016  00000-0  64652-3 0  9992,2 53144  53.2163 314.8411 0001395  70.6030 289.5113 15.08839177 39735,6917.883,95.438,540.713,538.783,0.0
53144.0,STARLINK-4100,PAYLOAD,2023-04-01 00:48:14,15.08850374,0.0001317,53.2166,313.949,98.5648,261.5493,0.00061785,9.562e-05,0.0,0 STARLINK-4100,1 53144U 22083N   23091.03350321  .00009562  00000-0  61785-3 0  9996,2 53144  53.2166 313.9490 0001317  98.5648 261.5493 15.08850374 39769,6917.849,95.437,540.625,538.803,0.0
